SENTINEL-6              
1 46984U 20086A   24253.78787134 -.00000046  00000+0  66417-4 0  9996
2 46984  66.0435  35.5521 0007801 269.2523  90.7598 12.80931425177663
